NORAD_CAT_ID,OBJECT_NAME,OBJECT_TYPE,EPOCH,MEAN_MOTION,ECCENTRICITY,INCLINATION,RA_OF_ASC_NODE,ARG_OF_PERICENTER,MEAN_ANOMALY,BSTAR,MEAN_MOTION_DOT,MEAN_MOTION_DDOT,TLE_LINE0,TLE_LINE1,TLE_LINE2,SEMIMAJOR_AXIS,PERIOD,APOGEE,PERIGEE,DECAYED
53702.0,STARLINK-4724,PAYLOAD,2023-07-17 10:20:56,15.08826414,0.0001286,53.2159,246.7258,96.4845,263.6294,-1.4878e-05,-5.25e-06,0.0,0 STARLINK-4724,1 53702U 22107C   23198.43120730 -.00000525  00000-0 -14878-4 0  9998,2 53702  53.2159 246.7258 0001286  96.4845 263.6294 15.08826414 48442,6917.922,95.438,540.677,538.897,0.0
53702.0,STARLINK-4724,PAYLOAD,2023-07-17 19:53:18,15.08767424,0.0001274,53.2157,244.9416,87.9693,272.1445,-0.00079548,-0.000129,0.0,0 STARLINK-4724,1 53702U 22107C   23198.82869052 -.00012900  00000-0 -79548-3 0  9992,2 53702  53.2157 244.9416 0001274  87.9693 272.1445 15.08767424 48504,6918.102,95.442,540.849,539.086,0.0
53702.0,STARLINK-4724,PAYLOAD,2023-07-18 08:36:23,15.08804481,0.0001778,53.2161,242.5634,122.0938,238.0227,-0.00010407,-1.942e-05,0.0,0 STARLINK-4724,1 53702U 22107C   23199.35860692 -.00001942  00000-0 -10407-3 0  9995,2 53702  53.2161 242.5634 0001778 122.0938 238.0227 15.08804481 48589,6917.989,95.44,541.084,538.624,0.0
53702.0,STARLINK-4724,PAYLOAD,2023-07-18 14:57:55,15.08823891,0.0001217,53.2148,241.3707,95.2406,264.8725,0.00021461,3.128e-05,0.0,0 STARLINK-4724,1 53702U 22107C   23199.62356414  .00003128  00000-0  21461-3 0  9995,2 53702  53.2148 241.3707 0001217  95.2406 264.8725 15.08823891 48622,6917.93,95.439,540.637,538.953,0.0
53702.0,STARLINK-4724,PAYLOAD,2023-07-19 02:05:37,15.08836806,0.0001282,53.2154,239.2918,81.4522,278.6615,0.00054755,8.436e-05,0.0,0 STARLINK-4724,1 53702U 22107C   23200.08724303  .00008436  00000-0  54755-3 0  9993,2 53702  53.2154 239.2918 0001282  81.4522 278.6615 15.08836806 48695,6917.89,95.438,540.642,538.868,0.0
53702.0,STARLINK-4724,PAYLOAD,2023-07-20 14:39:27,15.08889139,0.0001184,53.2143,232.4509,97.9731,262.1396,0.00053094,8.183e-05,0.0,0 STARLINK-4724,1 53702U 22107C   23201.61073122  .00008183  00000-0  53094-3 0  9993,2 53702  53.2143 232.4509 0001184  97.9731 262.1396 15.08889139 48926,6917.73,95.434,540.414,538.776,0.0
53702.0,STARLINK-4724,PAYLOAD,2023-07-21 11:19:26,15.08878742,0.0001593,53.2143,228.5835,77.5089,282.6082,0.00031853,4.79e-05,0.0,0 STARLINK-4724,1 53702U 22107C   23202.47183728  .00004790  00000-0  31853-3 0  9991,2 53702  53.2143 228.5835 0001593  77.5089 282.6082 15.08878742 49050,6917.762,95.435,540.729,538.525,0.0
53702.0,STARLINK-4724,PAYLOAD,2023-07-24 12:27:10,15.08840867,0.0001384,53.2151,214.9066,78.4189,281.6958,9.343e-05,1.199e-05,0.0,0 STARLINK-4724,1 53702U 22107C   23205.51887610  .00001199  00000-0  93430-4 0  9990,2 53702  53.2151 214.9066 0001384  78.4189 281.6958 15.08840867 50299,6917.878,95.437,540.7,538.785,0.0
53702.0,STARLINK-4724,PAYLOAD,2023-07-25 13:53:21,15.08837564,0.0001492,53.2161,210.1469,86.7726,273.3437,2.2104e-05,6.4e-07,0.0,0 STARLINK-4724,1 53702U 22107C   23206.57871808  .00000064  00000-0  22104-4 0  9999,2 53702  53.2161 210.1469 0001492  86.7726 273.3437 15.08837564 50452,6917.888,95.438,540.785,538.721,0.0
53702.0,STARLINK-4724,PAYLOAD,2023-07-26 08:57:58,15.08841772,0.0001347,53.2156,206.5803,82.91,277.2045,0.00011608,1.56e-05,0.0,0 STARLINK-4724,1 53702U 22107C   23207.37359796  .00001560  00000-0  11608-3 0  9993,2 53702  53.2156 206.5803 0001347  82.9100 277.2045 15.08841772 50577,6917.875,95.437,540.672,538.808,0.0
53702.0,STARLINK-4724,PAYLOAD,2023-07-27 02:27:13,15.08838869,0.0001338,53.2146,203.3093,81.8471,278.2673,9.0293e-05,1.149e-05,0.0,0 STARLINK-4724,1 53702U 22107C   23208.10223846  .00001149  00000-0  90293-4 0  9992,2 53702  53.2146 203.3093 0001338  81.8471 278.2673 15.08838869 49907,6917.884,95.438,540.674,538.823,0.0
53702.0,STARLINK-4724,PAYLOAD,2023-07-27 08:48:45,15.088412,0.0001367,53.2146,202.1199,81.3779,278.7368,0.00011212,1.497e-05,0.0,0 STARLINK-4724,1 53702U 22107C   23208.36719757  .00001497  00000-0  11212-3 0  9990,2 53702  53.2146 202.1199 0001367  81.3779 278.7368 15.08841200 50720,6917.877,95.437,540.687,538.796,0.0
53702.0,STARLINK-4724,PAYLOAD,2023-07-27 16:45:41,15.08836121,0.0001386,53.2151,200.6339,82.1388,277.9761,6.609e-05,7.64e-06,0.0,0 STARLINK-4724,1 53702U 22107C   23208.69840061  .00000764  00000-0  66090-4 0  9990,2 53702  53.2151 200.6339 0001386  82.1388 277.9761 15.08836121 50770,6917.892,95.438,540.716,538.798,0.0
53702.0,STARLINK-4724,PAYLOAD,2023-07-28 07:04:10,15.08838664,0.0001329,53.2158,197.9579,86.3645,273.7499,4.4844e-05,4.26e-06,0.0,0 STARLINK-4724,1 53702U 22107C   23209.29456256  .00000426  00000-0  44844-4 0  9994,2 53702  53.2158 197.9579 0001329  86.3645 273.7499 15.08838664 50080,6917.884,95.438,540.669,538.83,0.0
53702.0,STARLINK-4724,PAYLOAD,2023-07-29 10:05:42,15.0884789,0.000129,53.2159,192.9018,88.0859,272.0281,0.00010292,1.351e-05,0.0,0 STARLINK-4724,1 53702U 22107C   23210.42063468  .00001351  00000-0  10292-3 0  9997,2 53702  53.2159 192.9018 0001290  88.0859 272.0281 15.08847890 50258,6917.856,95.437,540.614,538.829,0.0
53702.0,STARLINK-4724,PAYLOAD,2023-07-30 01:59:34,15.0883648,0.0001298,53.2161,189.928,88.9131,271.2009,7.1069e-05,8.43e-06,0.0,0 STARLINK-4724,1 53702U 22107C   23211.08304288  .00000843  00000-0  71069-4 0  9993,2 53702  53.2161 189.9280 0001298  88.9131 271.2009 15.08836480 50351,6917.891,95.438,540.654,538.858,0.0
53702.0,STARLINK-4724,PAYLOAD,2023-07-30 09:56:30,15.08843359,0.0001324,53.2168,188.4401,94.3351,265.7792,9.7892e-05,1.271e-05,0.0,0 STARLINK-4724,1 53702U 22107C   23211.41423751  .00001271  00000-0  97892-4 0  9995,2 53702  53.2168 188.4401 0001324  94.3351 265.7792 15.08843359 50408,6917.87,95.437,540.651,538.819,0.0
53702.0,STARLINK-4724,PAYLOAD,2023-07-31 01:50:22,15.08834044,0.000138,53.217,185.4656,101.9371,258.1776,-2.8101e-05,-7.35e-06,0.0,0 STARLINK-4724,1 53702U 22107C   23212.07664756 -.00000735  00000-0 -28101-4 0  9993,2 53702  53.2170 185.4656 0001380 101.9371 258.1776 15.08834044 50509,6917.899,95.438,540.718,538.809,0.0
53702.0,STARLINK-4724,PAYLOAD,2023-08-01 03:16:32,15.08839925,0.0001306,53.2168,180.7096,96.3435,263.7706,4.0617e-05,3.59e-06,0.0,0 STARLINK-4724,1 53702U 22107C   23213.13648390  .00000359  00000-0  40617-4 0  9993,2 53702  53.2168 180.7096 0001306  96.3435 263.7706 15.08839925 50663,6917.881,95.438,540.649,538.842,0.0
53702.0,STARLINK-4724,PAYLOAD,2023-08-02 01:31:57,15.08790689,0.0001396,53.2161,176.5462,82.2843,277.8308,0.00059336,9.155e-05,0.0,0 STARLINK-4724,1 53702U 22107C   23214.06385778  .00009155  00000-0  59336-3 0  9994,2 53702  53.2161 176.5462 0001396  82.2843 277.8308 15.08790689 50805,6918.031,95.441,540.862,538.93,0.0
53702.0,STARLINK-4724,PAYLOAD,2023-08-02 06:18:06,15.08802901,0.0001378,53.2166,175.6542,81.5375,278.5773,0.0005348,8.225e-05,0.0,0 STARLINK-4724,1 53702U 22107C   23214.26257687  .00008225  00000-0  53480-3 0  9994,2 53702  53.2166 175.6542 0001378  81.5375 278.5773 15.08802901 50839,6917.994,95.44,540.812,538.905,0.0
53702.0,STARLINK-4724,PAYLOAD,2023-08-02 14:15:00,15.08891872,0.0001267,53.2164,174.1664,80.1951,279.9184,-0.0007216,-0.0001177,0.0,0 STARLINK-4724,1 53702U 22107C   23214.59375077 -.00011770  00000-0 -72160-3 0  9991,2 53702  53.2164 174.1664 0001267  80.1951 279.9184 15.08891872 50889,6917.722,95.434,540.463,538.71,0.0
53702.0,STARLINK-4724,PAYLOAD,2023-08-03 02:58:06,15.08839382,0.0001249,53.2172,171.7891,90.6422,269.4713,2.8647e-05,1.68e-06,0.0,0 STARLINK-4724,1 53702U 22107C   23215.12369065  .00000168  00000-0  28647-4 0  9990,2 53702  53.2172 171.7891 0001249  90.6422 269.4713 15.08839382 50961,6917.882,95.438,540.611,538.883,0.0
53702.0,STARLINK-4724,PAYLOAD,2023-08-04 05:59:40,15.08837358,0.000119,53.2173,166.7349,95.5907,264.5221,3.8723e-05,3.28e-06,0.0,0 STARLINK-4724,1 53702U 22107C   23216.24977417  .00000328  00000-0  38723-4 0  9994,2 53702  53.2173 166.7349 0001190  95.5907 264.5221 15.08837358 51132,6917.888,95.438,540.577,538.93,0.0
53702.0,STARLINK-4724,PAYLOAD,2023-08-05 02:39:40,15.08887842,9.73e-05,53.2165,162.8686,86.8528,273.2576,-0.00051797,-8.533e-05,0.0,0 STARLINK-4724,1 53702U 22107C   23217.11087997 -.00008533  00000-0 -51797-3 0  9999,2 53702  53.2165 162.8686 0000973  86.8528 273.2576 15.08887842 51261,6917.734,95.435,540.272,538.926,0.0
53702.0,STARLINK-4724,PAYLOAD,2023-08-05 04:15:03,15.08846304,0.0001013,53.2164,162.5707,89.8511,270.2597,9.9112e-05,1.29e-05,0.0,0 STARLINK-4724,1 53702U 22107C   23217.17712838  .00001290  00000-0  99112-4 0  9999,2 53702  53.2164 162.5707 0001013  89.8511 270.2597 15.08846304 51271,6917.861,95.437,540.427,539.025,0.0
53702.0,STARLINK-4724,PAYLOAD,2023-08-06 02:30:27,15.08834124,0.0001209,53.2164,158.4079,96.2113,263.9016,0.00024916,3.679e-05,0.0,0 STARLINK-4724,1 53702U 22107C   23218.10449002  .00003679  00000-0  24916-3 0  9995,2 53702  53.2164 158.4079 0001209  96.2113 263.9016 15.08834124 51412,6917.898,95.438,540.6,538.927,0.0
53702.0,STARLINK-4724,PAYLOAD,2023-08-07 02:21:16,15.08832672,0.000125,53.2162,153.9473,88.0859,272.0276,-8.3219e-05,-1.612e-05,0.0,0 STARLINK-4724,1 53702U 22107C   23219.09810377 -.00001612  00000-0 -83219-4 0  9990,2 53702  53.2162 153.9473 0001250  88.0859 272.0276 15.08832672 51561,6917.903,95.438,540.633,538.903,0.0
53702.0,STARLINK-4724,PAYLOAD,2023-08-08 02:12:01,15.08855388,0.000118,53.2168,149.4875,76.9804,283.1319,3.6613e-05,2.95e-06,0.0,0 STARLINK-4724,1 53702U 22107C   23220.09168486  .00000295  00000-0  36613-4 0  9999,2 53702  53.2168 149.4875 0001180  76.9804 283.1319 15.08855388 51718,6917.833,95.437,540.515,538.882,0.0
53702.0,STARLINK-4724,PAYLOAD,2023-08-08 11:44:20,15.0884499,0.0001357,53.2163,147.7011,74.5876,285.5266,-1.0376e-05,-4.53e-06,0.0,0 STARLINK-4724,1 53702U 22107C   23220.48913160 -.00000453  00000-0 -10376-4 0  9995,2 53702  53.2163 147.7011 0001357  74.5876 285.5266 15.08844990 51775,6917.865,95.437,540.669,538.791,0.0
